<?xml version="1.0" encoding="UTF-8" standalone="yes"?>
<TrainingCenterDatabase xmlns="http://www.garmin.com/xmlschemas/TrainingCenterDatabase/v2">
    <Activities>
        <Activity Sport="Running">
            <Id>2026-09-17T16:31:20.949-03:00</Id>
            <Lap StartTime="2026-09-17T16:31:18.852-03:00">
                <TotalTimeSeconds>361.088</TotalTimeSeconds>
                <DistanceMeters>1088.484</DistanceMeters>
                <Calories>74</Calories>
                <Intensity>Active</Intensity>
                <TriggerMethod>Manual</TriggerMethod>
                <Track>
                    <Trackpoint>
                        <Time>2026-09-17T16:31:20.949-03:00</Time>
                        <Position>
                            <LatitudeDegrees>-10.0000000</LatitudeDegrees>
                            <LongitudeDegrees>-20.0000000</LongitudeDegrees>
                        </Position>
                        <AltitudeMeters>5.200000286102295</AltitudeMeters>
                        <DistanceMeters>0.0</DistanceMeters>
                    </Trackpoint>
                    <Trackpoint>
                        <Time>2026-09-17T16:31:24.952-03:00</Time>
                        <Position>
                            <LatitudeDegrees>-10.0000031</LatitudeDegrees>
                            <LongitudeDegrees>-20.0000629</LongitudeDegrees>
                        </Position>
                        <AltitudeMeters>5.200000286102295</AltitudeMeters>
                        <DistanceMeters>0.0</DistanceMeters>
                    </Trackpoint>
                    <Trackpoint>
                        <Time>2026-09-17T16:32:26.949-03:00</Time>
                        <Position>
                            <LatitudeDegrees>-9.9999424</LatitudeDegrees>
                            <LongitudeDegrees>-20.0001349</LongitudeDegrees>
                        </Position>
                        <AltitudeMeters>5.200000286102295</AltitudeMeters>
                        <DistanceMeters>0.0</DistanceMeters>
                    </Trackpoint>
                    <Trackpoint>
                        <Time>2026-09-17T16:33:38.946-03:00</Time>
                        <Position>
                            <LatitudeDegrees>-9.9999782</LatitudeDegrees>
                            <LongitudeDegrees>-20.0002137</LongitudeDegrees>
                        </Position>
                        <AltitudeMeters>5.0</AltitudeMeters>
                        <DistanceMeters>0.0</DistanceMeters>
                    </Trackpoint>
                    <Trackpoint>
                        <Time>2026-09-17T16:33:44.949-03:00</Time>
                        <Position>
                            <LatitudeDegrees>-9.9999680</LatitudeDegrees>
                            <LongitudeDegrees>-20.0003632</LongitudeDegrees>
                        </Position>
                        <AltitudeMeters>5.0</AltitudeMeters>
                        <DistanceMeters>15.479135032137494</DistanceMeters>
                    </Trackpoint>
                    <Trackpoint>
                        <Time>2026-09-17T16:33:48.890-03:00</Time>
                        <Position>
                            <LatitudeDegrees>-9.9999576</LatitudeDegrees>
                            <LongitudeDegrees>-20.0004719</LongitudeDegrees>
                        </Position>
                        <AltitudeMeters>5.0</AltitudeMeters>
                        <DistanceMeters>26.763026569162534</DistanceMeters>
                    </Trackpoint>
                    <Trackpoint>
                        <Time>2026-09-17T16:33:52.957-03:00</Time>
                        <Position>
                            <LatitudeDegrees>-9.9999311</LatitudeDegrees>
                            <LongitudeDegrees>-20.0006040</LongitudeDegrees>
                        </Position>
                        <AltitudeMeters>5.0</AltitudeMeters>
                        <DistanceMeters>40.71845359214857</DistanceMeters>
                    </Trackpoint>
                    <Trackpoint>
                        <Time>2026-09-17T16:33:56.946-03:00</Time>
                        <Position>
                            <LatitudeDegrees>-9.9998915</LatitudeDegrees>
                            <LongitudeDegrees>-20.0007101</LongitudeDegrees>
                        </Position>
                        <AltitudeMeters>5.0</AltitudeMeters>
                        <DistanceMeters>52.526216297035845</DistanceMeters>
                    </Trackpoint>
                    <Trackpoint>
                        <Time>2026-09-17T16:34:00.947-03:00</Time>
                        <Position>
                            <LatitudeDegrees>-9.9998767</LatitudeDegrees>
                            <LongitudeDegrees>-20.0008140</LongitudeDegrees>
                        </Position>
                        <AltitudeMeters>5.0</AltitudeMeters>
                        <DistanceMeters>63.38052755481708</DistanceMeters>
                    </Trackpoint>
                    <Trackpoint>
                        <Time>2026-09-17T16:34:06.771-03:00</Time>
                        <Position>
                            <LatitudeDegrees>-9.9998554</LatitudeDegrees>
                            <LongitudeDegrees>-20.0009270</LongitudeDegrees>
                        </Position>
                        <AltitudeMeters>5.0</AltitudeMeters>
                        <DistanceMeters>75.2869814108524</DistanceMeters>
                    </Trackpoint>
                    <Trackpoint>
                        <Time>2026-09-17T16:34:10.945-03:00</Time>
                        <Position>
                            <LatitudeDegrees>-9.9999628</LatitudeDegrees>
                            <LongitudeDegrees>-20.0009320</LongitudeDegrees>
                        </Position>
                        <AltitudeMeters>5.0</AltitudeMeters>
                        <DistanceMeters>87.2404908210191</DistanceMeters>
                    </Trackpoint>
                    <Trackpoint>
                        <Time>2026-09-17T16:34:14.883-03:00</Time>
                        <Position>
                            <LatitudeDegrees>-10.0000659</LatitudeDegrees>
                            <LongitudeDegrees>-20.0009353</LongitudeDegrees>
                        </Position>
                        <AltitudeMeters>5.0</AltitudeMeters>
                        <DistanceMeters>98.70976901551373</DistanceMeters>
                    </Trackpoint>
                    <Trackpoint>
                        <Time>2026-09-17T16:34:18.796-03:00</Time>
                        <Position>
                            <LatitudeDegrees>-10.0001778</LatitudeDegrees>
                            <LongitudeDegrees>-20.0009437</LongitudeDegrees>
                        </Position>
                        <AltitudeMeters>4.599999904632568</AltitudeMeters>
                        <DistanceMeters>111.1826974574117</DistanceMeters>
                    </Trackpoint>
                    <Trackpoint>
                        <Time>2026-09-17T16:34:22.456-03:00</Time>
                        <Position>
                            <LatitudeDegrees>-10.0002778</LatitudeDegrees>
                            <LongitudeDegrees>-20.0009388</LongitudeDegrees>
                        </Position>
                        <AltitudeMeters>4.599999904632568</AltitudeMeters>
                        <DistanceMeters>122.3137135494683</DistanceMeters>
                    </Trackpoint>
                    <Trackpoint>
                        <Time>2026-09-17T16:34:26.575-03:00</Time>
                        <Position>
                            <LatitudeDegrees>-10.0003905</LatitudeDegrees>
                            <LongitudeDegrees>-20.0009619</LongitudeDegrees>
                        </Position>
                        <AltitudeMeters>4.599999904632568</AltitudeMeters>
                        <DistanceMeters>135.07039702723625</DistanceMeters>
                    </Trackpoint>
                    <Trackpoint>
                        <Time>2026-09-17T16:34:30.954-03:00</Time>
                        <Position>
                            <LatitudeDegrees>-10.0005079</LatitudeDegrees>
                            <LongitudeDegrees>-20.0009845</LongitudeDegrees>
                        </Position>
                        <AltitudeMeters>4.599999904632568</AltitudeMeters>
                        <DistanceMeters>148.33165616885614</DistanceMeters>
                    </Trackpoint>
                    <Trackpoint>
                        <Time>2026-09-17T16:34:34.952-03:00</Time>
                        <Position>
                            <LatitudeDegrees>-10.0006106</LatitudeDegrees>
                            <LongitudeDegrees>-20.0009725</LongitudeDegrees>
                        </Position>
                        <AltitudeMeters>4.599999904632568</AltitudeMeters>
                        <DistanceMeters>159.81842367191817</DistanceMeters>
                    </Trackpoint>
                    <Trackpoint>
                        <Time>2026-09-17T16:34:38.963-03:00</Time>
                        <Position>
                            <LatitudeDegrees>-10.0007118</LatitudeDegrees>
                            <LongitudeDegrees>-20.0009900</LongitudeDegrees>
                        </Position>
                        <AltitudeMeters>4.599999904632568</AltitudeMeters>
                        <DistanceMeters>171.21553816484894</DistanceMeters>
                    </Trackpoint>
                    <Trackpoint>
                        <Time>2026-09-17T16:34:44.949-03:00</Time>
                        <Position>
                            <LatitudeDegrees>-10.0008212</LatitudeDegrees>
                            <LongitudeDegrees>-20.0009805</LongitudeDegrees>
                        </Position>
                        <AltitudeMeters>4.599999904632568</AltitudeMeters>
                        <DistanceMeters>183.41977141825464</DistanceMeters>
                    </Trackpoint>
                    <Trackpoint>
                        <Time>2026-09-17T16:34:50.892-03:00</Time>
                        <Position>
                            <LatitudeDegrees>-10.0009450</LatitudeDegrees>
                            <LongitudeDegrees>-20.0009678</LongitudeDegrees>
                        </Position>
                        <AltitudeMeters>4.599999904632568</AltitudeMeters>
                        <DistanceMeters>197.24804914189127</DistanceMeters>
                    </Trackpoint>
                    <Trackpoint>
                        <Time>2026-09-17T16:34:54.949-03:00</Time>
                        <Position>
                            <LatitudeDegrees>-10.0010336</LatitudeDegrees>
                            <LongitudeDegrees>-20.0009934</LongitudeDegrees>
                        </Position>
                        <AltitudeMeters>4.5</AltitudeMeters>
                        <DistanceMeters>207.44841970543456</DistanceMeters>
                    </Trackpoint>
                    <Trackpoint>
                        <Time>2026-09-17T16:35:00.951-03:00</Time>
                        <Position>
                            <LatitudeDegrees>-10.0011642</LatitudeDegrees>
                            <LongitudeDegrees>-20.0009884</LongitudeDegrees>
                        </Position>
                        <AltitudeMeters>4.5</AltitudeMeters>
                        <DistanceMeters>221.9796750074396</DistanceMeters>
                    </Trackpoint>
                    <Trackpoint>
                        <Time>2026-09-17T16:35:06.953-03:00</Time>
                        <Position>
                            <LatitudeDegrees>-10.0012886</LatitudeDegrees>
                            <LongitudeDegrees>-20.0009953</LongitudeDegrees>
                        </Position>
                        <AltitudeMeters>4.5</AltitudeMeters>
                        <DistanceMeters>235.83068308270205</DistanceMeters>
                    </Trackpoint>
                    <Trackpoint>
                        <Time>2026-09-17T16:35:12.950-03:00</Time>
                        <Position>
                            <LatitudeDegrees>-10.0014210</LatitudeDegrees>
                            <LongitudeDegrees>-20.0010091</LongitudeDegrees>
                        </Position>
                        <AltitudeMeters>4.5</AltitudeMeters>
                        <DistanceMeters>250.62171719795674</DistanceMeters>
                    </Trackpoint>
                    <Trackpoint>
                        <Time>2026-09-17T16:35:18.945-03:00</Time>
                        <Position>
                            <LatitudeDegrees>-10.0015150</LatitudeDegrees>
                            <LongitudeDegrees>-20.0010902</LongitudeDegrees>
                        </Position>
                        <AltitudeMeters>4.5</AltitudeMeters>
                        <DistanceMeters>264.0150627483879</DistanceMeters>
                    </Trackpoint>
                    <Trackpoint>
                        <Time>2026-09-17T16:35:24.952-03:00</Time>
                        <Position>
                            <LatitudeDegrees>-10.0015327</LatitudeDegrees>
                            <LongitudeDegrees>-20.0012224</LongitudeDegrees>
                        </Position>
                        <AltitudeMeters>4.5</AltitudeMeters>
                        <DistanceMeters>277.80717717013226</DistanceMeters>
                    </Trackpoint>
                    <Trackpoint>
                        <Time>2026-09-17T16:35:28.955-03:00</Time>
                        <Position>
                            <LatitudeDegrees>-10.0015395</LatitudeDegrees>
                            <LongitudeDegrees>-20.0013189</LongitudeDegrees>
                        </Position>
                        <AltitudeMeters>4.5</AltitudeMeters>
                        <DistanceMeters>287.80040660953796</DistanceMeters>
                    </Trackpoint>
                    <Trackpoint>
                        <Time>2026-09-17T16:35:32.951-03:00</Time>
                        <Position>
                            <LatitudeDegrees>-10.0015399</LatitudeDegrees>
                            <LongitudeDegrees>-20.0014157</LongitudeDegrees>
                        </Position>
                        <AltitudeMeters>4.5</AltitudeMeters>
                        <DistanceMeters>297.79606592752395</DistanceMeters>
                    </Trackpoint>
                    <Trackpoint>
                        <Time>2026-09-17T16:35:36.951-03:00</Time>
                        <Position>
                            <LatitudeDegrees>-10.0015481</LatitudeDegrees>
                            <LongitudeDegrees>-20.0015232</LongitudeDegrees>
                        </Position>
                        <AltitudeMeters>4.5</AltitudeMeters>
                        <DistanceMeters>308.93389216834316</DistanceMeters>
                    </Trackpoint>
                    <Trackpoint>
                        <Time>2026-09-17T16:35:40.949-03:00</Time>
                        <Position>
                            <LatitudeDegrees>-10.0015422</LatitudeDegrees>
                            <LongitudeDegrees>-20.0016260</LongitudeDegrees>
                        </Position>
                        <AltitudeMeters>4.5</AltitudeMeters>
                        <DistanceMeters>319.56926544207073</DistanceMeters>
                    </Trackpoint>
                    <Trackpoint>
                        <Time>2026-09-17T16:35:44.951-03:00</Time>
                        <Position>
                            <LatitudeDegrees>-10.0015380</LatitudeDegrees>
                            <LongitudeDegrees>-20.0017334</LongitudeDegrees>
                        </Position>
                        <AltitudeMeters>4.5</AltitudeMeters>
                        <DistanceMeters>330.66920998204165</DistanceMeters>
                    </Trackpoint>
                    <Trackpoint>
                        <Time>2026-09-17T16:35:48.949-03:00</Time>
                        <Position>
                            <LatitudeDegrees>-10.0015451</LatitudeDegrees>
                            <LongitudeDegrees>-20.0018414</LongitudeDegrees>
                        </Position>
                        <AltitudeMeters>4.5</AltitudeMeters>
                        <DistanceMeters>341.8491912829777</DistanceMeters>
                    </Trackpoint>
                    <Trackpoint>
                        <Time>2026-09-17T16:35:52.945-03:00</Time>
                        <Position>
                            <LatitudeDegrees>-10.0015452</LatitudeDegrees>
                            <LongitudeDegrees>-20.0019438</LongitudeDegrees>
                        </Position>
                        <AltitudeMeters>4.5</AltitudeMeters>
                        <DistanceMeters>352.42301264629947</DistanceMeters>
                    </Trackpoint>
                    <Trackpoint>
                        <Time>2026-09-17T16:35:56.954-03:00</Time>
                        <Position>
                            <LatitudeDegrees>-10.0015466</LatitudeDegrees>
                            <LongitudeDegrees>-20.0020429</LongitudeDegrees>
                        </Position>
                        <AltitudeMeters>4.5</AltitudeMeters>
                        <DistanceMeters>362.65725442353295</DistanceMeters>
                    </Trackpoint>
                    <Trackpoint>
                        <Time>2026-09-17T16:36:00.951-03:00</Time>
                        <Position>
                            <LatitudeDegrees>-10.0015501</LatitudeDegrees>
                            <LongitudeDegrees>-20.0021428</LongitudeDegrees>
                        </Position>
                        <AltitudeMeters>4.5</AltitudeMeters>
                        <DistanceMeters>372.9802587263341</DistanceMeters>
                    </Trackpoint>
                    <Trackpoint>
                        <Time>2026-09-17T16:36:06.951-03:00</Time>
                        <Position>
                            <LatitudeDegrees>-10.0015452</LatitudeDegrees>
                            <LongitudeDegrees>-20.0022797</LongitudeDegrees>
                        </Position>
                        <AltitudeMeters>4.5</AltitudeMeters>
                        <DistanceMeters>387.12703745766134</DistanceMeters>
                    </Trackpoint>
                    <Trackpoint>
                        <Time>2026-09-17T16:36:10.950-03:00</Time>
                        <Position>
                            <LatitudeDegrees>-10.0015340</LatitudeDegrees>
                            <LongitudeDegrees>-20.0023783</LongitudeDegrees>
                        </Position>
                        <AltitudeMeters>4.5</AltitudeMeters>
                        <DistanceMeters>397.38435020634626</DistanceMeters>
                    </Trackpoint>
                    <Trackpoint>
                        <Time>2026-09-17T16:36:16.951-03:00</Time>
                        <Position>
                            <LatitudeDegrees>-10.0015404</LatitudeDegrees>
                            <LongitudeDegrees>-20.0025189</LongitudeDegrees>
                        </Position>
                        <AltitudeMeters>4.5</AltitudeMeters>
                        <DistanceMeters>411.9201264112223</DistanceMeters>
                    </Trackpoint>
                    <Trackpoint>
                        <Time>2026-09-17T16:36:22.949-03:00</Time>
                        <Position>
                            <LatitudeDegrees>-10.0015401</LatitudeDegrees>
                            <LongitudeDegrees>-20.0026644</LongitudeDegrees>
                        </Position>
                        <AltitudeMeters>4.5</AltitudeMeters>
                        <DistanceMeters>426.94448190281867</DistanceMeters>
                    </Trackpoint>
                    <Trackpoint>
                        <Time>2026-09-17T16:36:28.943-03:00</Time>
                        <Position>
                            <LatitudeDegrees>-10.0015325</LatitudeDegrees>
                            <LongitudeDegrees>-20.0027993</LongitudeDegrees>
                        </Position>
                        <AltitudeMeters>4.5</AltitudeMeters>
                        <DistanceMeters>440.89985653526</DistanceMeters>
                    </Trackpoint>
                    <Trackpoint>
                        <Time>2026-09-17T16:36:36.953-03:00</Time>
                        <Position>
                            <LatitudeDegrees>-10.0014732</LatitudeDegrees>
                            <LongitudeDegrees>-20.0028827</LongitudeDegrees>
                        </Position>
                        <AltitudeMeters>4.5</AltitudeMeters>
                        <DistanceMeters>451.7462193234288</DistanceMeters>
                    </Trackpoint>
                    <Trackpoint>
                        <Time>2026-09-17T16:36:52.946-03:00</Time>
                        <Position>
                            <LatitudeDegrees>-10.0015237</LatitudeDegrees>
                            <LongitudeDegrees>-20.0030075</LongitudeDegrees>
                        </Position>
                        <AltitudeMeters>5.099999904632568</AltitudeMeters>
                        <DistanceMeters>465.80334840294324</DistanceMeters>
                    </Trackpoint>
                    <Trackpoint>
                        <Time>2026-09-17T16:36:56.948-03:00</Time>
                        <Position>
                            <LatitudeDegrees>-10.0015323</LatitudeDegrees>
                            <LongitudeDegrees>-20.0031055</LongitudeDegrees>
                        </Position>
                        <AltitudeMeters>5.099999904632568</AltitudeMeters>
                        <DistanceMeters>475.96790461535693</DistanceMeters>
                    </Trackpoint>
                    <Trackpoint>
                        <Time>2026-09-17T16:37:02.956-03:00</Time>
                        <Position>
                            <LatitudeDegrees>-10.0015179</LatitudeDegrees>
                            <LongitudeDegrees>-20.0032461</LongitudeDegrees>
                        </Position>
                        <AltitudeMeters>5.099999904632568</AltitudeMeters>
                        <DistanceMeters>490.57428176215916</DistanceMeters>
                    </Trackpoint>
                    <Trackpoint>
                        <Time>2026-09-17T16:37:08.948-03:00</Time>
                        <Position>
                            <LatitudeDegrees>-10.0015106</LatitudeDegrees>
                            <LongitudeDegrees>-20.0033868</LongitudeDegrees>
                        </Position>
                        <AltitudeMeters>4.700000286102295</AltitudeMeters>
                        <DistanceMeters>505.1256132859847</DistanceMeters>
                    </Trackpoint>
                    <Trackpoint>
                        <Time>2026-09-17T16:37:14.946-03:00</Time>
                        <Position>
                            <LatitudeDegrees>-10.0014978</LatitudeDegrees>
                            <LongitudeDegrees>-20.0035221</LongitudeDegrees>
                        </Position>
                        <AltitudeMeters>4.700000286102295</AltitudeMeters>
                        <DistanceMeters>519.1689958530226</DistanceMeters>
                    </Trackpoint>
                    <Trackpoint>
                        <Time>2026-09-17T16:37:20.951-03:00</Time>
                        <Position>
                            <LatitudeDegrees>-10.0014994</LatitudeDegrees>
                            <LongitudeDegrees>-20.0036496</LongitudeDegrees>
                        </Position>
                        <AltitudeMeters>4.700000286102295</AltitudeMeters>
                        <DistanceMeters>532.3358416032969</DistanceMeters>
                    </Trackpoint>
                    <Trackpoint>
                        <Time>2026-09-17T16:37:25.954-03:00</Time>
                        <Position>
                            <LatitudeDegrees>-10.0015068</LatitudeDegrees>
                            <LongitudeDegrees>-20.0037570</LongitudeDegrees>
                        </Position>
                        <AltitudeMeters>4.599999904632568</AltitudeMeters>
                        <DistanceMeters>543.4564439674534</DistanceMeters>
                    </Trackpoint>
                    <Trackpoint>
                        <Time>2026-09-17T16:37:31.950-03:00</Time>
                        <Position>
                            <LatitudeDegrees>-10.0014978</LatitudeDegrees>
                            <LongitudeDegrees>-20.0038813</LongitudeDegrees>
                        </Position>
                        <AltitudeMeters>4.599999904632568</AltitudeMeters>
                        <DistanceMeters>556.3306106418007</DistanceMeters>
                    </Trackpoint>
                    <Trackpoint>
                        <Time>2026-09-17T16:37:37.946-03:00</Time>
                        <Position>
                            <LatitudeDegrees>-10.0014708</LatitudeDegrees>
                            <LongitudeDegrees>-20.0039906</LongitudeDegrees>
                        </Position>
                        <AltitudeMeters>4.599999904632568</AltitudeMeters>
                        <DistanceMeters>568.0094157693118</DistanceMeters>
                    </Trackpoint>
                    <Trackpoint>
                        <Time>2026-09-17T16:37:43.948-03:00</Time>
                        <Position>
                            <LatitudeDegrees>-10.0014140</LatitudeDegrees>
                            <LongitudeDegrees>-20.0040770</LongitudeDegrees>
                        </Position>
                        <AltitudeMeters>4.599999904632568</AltitudeMeters>
                        <DistanceMeters>578.9404009532483</DistanceMeters>
                    </Trackpoint>
                    <Trackpoint>
                        <Time>2026-09-17T16:37:49.947-03:00</Time>
                        <Position>
                            <LatitudeDegrees>-10.0014390</LatitudeDegrees>
                            <LongitudeDegrees>-20.0041985</LongitudeDegrees>
                        </Position>
                        <AltitudeMeters>4.5</AltitudeMeters>
                        <DistanceMeters>591.7907745356216</DistanceMeters>
                    </Trackpoint>
                    <Trackpoint>
                        <Time>2026-09-17T16:37:53.956-03:00</Time>
                        <Position>
                            <LatitudeDegrees>-10.0014339</LatitudeDegrees>
                            <LongitudeDegrees>-20.0042972</LongitudeDegrees>
                        </Position>
                        <AltitudeMeters>4.5</AltitudeMeters>
                        <DistanceMeters>601.9983011799686</DistanceMeters>
                    </Trackpoint>
                    <Trackpoint>
                        <Time>2026-09-17T16:37:59.949-03:00</Time>
                        <Position>
                            <LatitudeDegrees>-10.0014286</LatitudeDegrees>
                            <LongitudeDegrees>-20.0044386</LongitudeDegrees>
                        </Position>
                        <AltitudeMeters>4.5</AltitudeMeters>
                        <DistanceMeters>616.6111537717017</DistanceMeters>
                    </Trackpoint>
                    <Trackpoint>
                        <Time>2026-09-17T16:38:03.961-03:00</Time>
                        <Position>
                            <LatitudeDegrees>-10.0014040</LatitudeDegrees>
                            <LongitudeDegrees>-20.0045355</LongitudeDegrees>
                        </Position>
                        <AltitudeMeters>4.5</AltitudeMeters>
                        <DistanceMeters>626.9842123523333</DistanceMeters>
                    </Trackpoint>
                    <Trackpoint>
                        <Time>2026-09-17T16:38:07.954-03:00</Time>
                        <Position>
                            <LatitudeDegrees>-10.0013797</LatitudeDegrees>
                            <LongitudeDegrees>-20.0046291</LongitudeDegrees>
                        </Position>
                        <AltitudeMeters>4.400000095367432</AltitudeMeters>
                        <DistanceMeters>637.0199449629719</DistanceMeters>
                    </Trackpoint>
                    <Trackpoint>
                        <Time>2026-09-17T16:38:13.956-03:00</Time>
                        <Position>
                            <LatitudeDegrees>-10.0013481</LatitudeDegrees>
                            <LongitudeDegrees>-20.0047619</LongitudeDegrees>
                        </Position>
                        <AltitudeMeters>4.400000095367432</AltitudeMeters>
                        <DistanceMeters>651.1759017915199</DistanceMeters>
                    </Trackpoint>
                    <Trackpoint>
                        <Time>2026-09-17T16:38:19.959-03:00</Time>
                        <Position>
                            <LatitudeDegrees>-10.0013162</LatitudeDegrees>
                            <LongitudeDegrees>-20.0048685</LongitudeDegrees>
                        </Position>
                        <AltitudeMeters>4.400000095367432</AltitudeMeters>
                        <DistanceMeters>662.7408341605186</DistanceMeters>
                    </Trackpoint>
                    <Trackpoint>
                        <Time>2026-09-17T16:38:25.951-03:00</Time>
                        <Position>
                            <LatitudeDegrees>-10.0012821</LatitudeDegrees>
                            <LongitudeDegrees>-20.0049778</LongitudeDegrees>
                        </Position>
                        <AltitudeMeters>4.200000286102295</AltitudeMeters>
                        <DistanceMeters>674.6470760947257</DistanceMeters>
                    </Trackpoint>
                    <Trackpoint>
                        <Time>2026-09-17T16:38:33.950-03:00</Time>
                        <Position>
                            <LatitudeDegrees>-10.0012476</LatitudeDegrees>
                            <LongitudeDegrees>-20.0051002</LongitudeDegrees>
                        </Position>
                        <AltitudeMeters>4.200000286102295</AltitudeMeters>
                        <DistanceMeters>687.855481143667</DistanceMeters>
                    </Trackpoint>
                    <Trackpoint>
                        <Time>2026-09-17T16:38:39.952-03:00</Time>
                        <Position>
                            <LatitudeDegrees>-10.0012511</LatitudeDegrees>
                            <LongitudeDegrees>-20.0052058</LongitudeDegrees>
                        </Position>
                        <AltitudeMeters>4.200000286102295</AltitudeMeters>
                        <DistanceMeters>698.7666938109569</DistanceMeters>
                    </Trackpoint>
                    <Trackpoint>
                        <Time>2026-09-17T16:39:11.959-03:00</Time>
                        <Position>
                            <LatitudeDegrees>-10.0013067</LatitudeDegrees>
                            <LongitudeDegrees>-20.0053085</LongitudeDegrees>
                        </Position>
                        <AltitudeMeters>4.200000286102295</AltitudeMeters>
                        <DistanceMeters>711.042064321999</DistanceMeters>
                    </Trackpoint>
                    <Trackpoint>
                        <Time>2026-09-17T16:39:17.945-03:00</Time>
                        <Position>
                            <LatitudeDegrees>-10.0014174</LatitudeDegrees>
                            <LongitudeDegrees>-20.0053756</LongitudeDegrees>
                        </Position>
                        <AltitudeMeters>4.200000286102295</AltitudeMeters>
                        <DistanceMeters>725.1674449024531</DistanceMeters>
                    </Trackpoint>
                    <Trackpoint>
                        <Time>2026-09-17T16:39:23.948-03:00</Time>
                        <Position>
                            <LatitudeDegrees>-10.0015464</LatitudeDegrees>
                            <LongitudeDegrees>-20.0054216</LongitudeDegrees>
                        </Position>
                        <AltitudeMeters>4.200000286102295</AltitudeMeters>
                        <DistanceMeters>740.2776156759559</DistanceMeters>
                    </Trackpoint>
                    <Trackpoint>
                        <Time>2026-09-17T16:39:29.952-03:00</Time>
                        <Position>
                            <LatitudeDegrees>-10.0016704</LatitudeDegrees>
                            <LongitudeDegrees>-20.0054502</LongitudeDegrees>
                        </Position>
                        <AltitudeMeters>4.200000286102295</AltitudeMeters>
                        <DistanceMeters>754.3785317764072</DistanceMeters>
                    </Trackpoint>
                </Track>
            </Lap>
            <Creator xsi:type="Device_t" xmlns:xsi="http://www.w3.org/2001/XMLSchema-instance">
                <Name>Fitbit Android App</Name>
                <UnitId>0</UnitId>
                <ProductID>0</ProductID>
            </Creator>
        </Activity>
    </Activities>
</TrainingCenterDatabase>
